KAZSTSAT                
1 43783U 18099AB  26068.61895971  .00001354  00000+0  11446-3 0  9991
2 43783  97.4396 105.0128 0006528  11.1145 349.0222 14.99620503396386
STARLINK-5823           
1 55786U 23028AX  26068.75256177 -.00000080  00000+0  11127-5 0  9993
2 55786  70.0009 204.3750 0002457 270.7505  89.3373 14.98328941167033
